NORAD_CAT_ID,OBJECT_NAME,OBJECT_TYPE,EPOCH,MEAN_MOTION,ECCENTRICITY,INCLINATION,RA_OF_ASC_NODE,ARG_OF_PERICENTER,MEAN_ANOMALY,BSTAR,MEAN_MOTION_DOT,MEAN_MOTION_DDOT,TLE_LINE0,TLE_LINE1,TLE_LINE2,SEMIMAJOR_AXIS,PERIOD,APOGEE,PERIGEE,DECAYED
54169.0,STARLINK-5282,PAYLOAD,2023-01-22 13:48:22,15.08844999,0.0001633,53.2178,90.8135,68.1029,292.0136,-1.8834e-05,-5.88e-06,0.0,0 STARLINK-5282,1 54169U 22141N   23022.57525856 -.00000588  00000-0 -18834-4 0  9998,2 54169  53.2178  90.8135 0001633  68.1029 292.0136 15.08844999 13440,6917.865,95.437,540.86,538.6,0.0
54169.0,STARLINK-5282,PAYLOAD,2023-01-23 10:28:23,15.08836751,0.0001375999999999,53.2181,86.9472,82.2351,277.8797,-1.9907e-05,-6.05e-06,0.0,0 STARLINK-5282,1 54169U 22141N   23023.43638178 -.00000605  00000-0 -19907-4 0  9998,2 54169  53.2181  86.9472 0001376  82.2351 277.8797 15.08836751 13578,6917.89,95.438,540.707,538.803,0.0
54169.0,STARLINK-5282,PAYLOAD,2023-01-25 03:48:25,15.08827767,0.0001443999999999,53.2187,79.2148,103.8201,256.2952,9.1623e-05,1.17e-05,0.0,0 STARLINK-5282,1 54169U 22141N   23025.15862600  .00001170  00000-0  91623-4 0  9999,2 54169  53.2187  79.2148 0001444 103.8201 256.2952 15.08827767 13839,6917.918000000001,95.438,540.7819999999999,538.784,0.0
54169.0,STARLINK-5282,PAYLOAD,2023-01-25 10:09:57,15.08831316,0.0001029,53.2187,78.0256,87.3145,272.7965,0.00011278,1.507e-05,0.0,0 STARLINK-5282,1 54169U 22141N   23025.42358486  .00001507  00000-0  11278-3 0  9992,2 54169  53.2187  78.0256 0001029  87.3145 272.7965 15.08831316 13874,6917.906999999999,95.438,540.484,539.06,0.0
54169.0,STARLINK-5282,PAYLOAD,2023-01-26 10:00:44,15.08847665,0.0001209,53.2181,73.5661,83.8992,276.2138,8.8471e-05,1.121e-05,0.0,0 STARLINK-5282,1 54169U 22141N   23026.41717777  .00001121  00000-0  88471-4 0  9996,2 54169  53.2181  73.5661 0001209  83.8992 276.2138 15.08847665 14022,6917.857,95.437,540.558,538.886,0.0
54169.0,STARLINK-5282,PAYLOAD,2023-01-26 19:33:03,15.08843728,0.0001295,53.2186,71.7814,85.0451,275.0689,-1.1995999999999998e-05,-4.79e-06,0.0,0 STARLINK-5282,1 54169U 22141N   23026.81462137 -.00000479  00000-0 -11996-4 0  9992,2 54169  53.2186  71.7814 0001295  85.0451 275.0689 15.08843728 14086,6917.869000000001,95.437,540.63,538.8380000000001,0.0
54169.0,STARLINK-5282,PAYLOAD,2023-01-27 03:29:59,15.08829617,0.0001097,53.2187,70.2948,93.2952,266.8166,4.7307e-06,-2.12e-06,0.0,0 STARLINK-5282,1 54169U 22141N   23027.14583092 -.00000212  00000-0  47307-5 0  9993,2 54169  53.2187  70.2948 0001097  93.2952 266.8166 15.08829617 14131,6917.911999999999,95.438,540.536,539.018,0.0
54169.0,STARLINK-5282,PAYLOAD,2023-01-27 08:16:08,15.08835037,0.0001385,53.2201,69.4031,103.9812,256.1334,3.9817e-05,3.46e-06,0.0,0 STARLINK-5282,1 54169U 22141N   23027.34454718  .00000346  00000-0  39817-4 0  9990,2 54169  53.2201  69.4031 0001385 103.9812 256.1334 15.08835037 14160,6917.896,95.438,540.719,538.802,0.0
54169.0,STARLINK-5282,PAYLOAD,2023-01-28 11:17:42,15.0884231,0.0001211,53.2183,64.3469,96.5454,263.5676,-2.6104e-05,-7.03e-06,0.0,0 STARLINK-5282,1 54169U 22141N   23028.47062746 -.00000703  00000-0 -26104-4 0  9995,2 54169  53.2183  64.3469 0001211  96.5454 263.5676 15.08842310 14337,6917.873,95.437,540.576,538.901,0.0
54169.0,STARLINK-5282,PAYLOAD,2023-01-28 19:14:37,15.08845943,0.0001115,53.218,62.8598,93.3053,266.8067,-3.7121e-05,-8.79e-06,0.0,0 STARLINK-5282,1 54169U 22141N   23028.80182457 -.00000879  00000-0 -37121-4 0  9999,2 54169  53.2180  62.8598 0001115  93.3053 266.8067 15.08845943 14383,6917.862,95.437,540.499,538.956,0.0
54169.0,STARLINK-5282,PAYLOAD,2023-01-29 01:36:10,15.08825641,0.0001155,53.2182,61.6706,94.7006,265.4118,0.00019001,2.736e-05,0.0,0 STARLINK-5282,1 54169U 22141N   23029.06679039  .00002736  00000-0  19001-3 0  9993,2 54169  53.2182  61.6706 0001155  94.7006 265.4118 15.08825641 14420,6917.924,95.438,540.588,538.99,0.0
54169.0,STARLINK-5282,PAYLOAD,2023-01-29 09:33:05,15.08841357,0.0001161,53.2183,60.184,92.9735,267.139,7.2761e-05,8.7e-06,0.0,0 STARLINK-5282,1 54169U 22141N   23029.39798496  .00000870  00000-0  72761-4 0  9998,2 54169  53.2183  60.1840 0001161  92.9735 267.1390 15.08841357 14478,6917.876,95.437,540.544,538.938,0.0
54169.0,STARLINK-5282,PAYLOAD,2023-01-29 19:05:24,15.08837555,0.0001187,53.2183,58.3998,88.0854,272.0274,7.9508e-05,9.78e-06,0.0,0 STARLINK-5282,1 54169U 22141N   23029.79542731  .00000978  00000-0  79508-4 0  9996,2 54169  53.2183  58.3998 0001187  88.0854 272.0274 15.08837555 14535,6917.888,95.438,540.574,538.932,0.0
54169.0,STARLINK-5282,PAYLOAD,2023-01-30 01:26:57,15.08837072,0.0001201,53.2184,57.2102,91.4358,268.6771,6.8926e-06,-1.78e-06,0.0,0 STARLINK-5282,1 54169U 22141N   23030.06039082 -.00000178  00000-0  68926-5 0  9994,2 54169  53.2184  57.2102 0001201  91.4358 268.6771 15.08837072 14576,6917.889,95.438,540.585,538.924,0.0
54169.0,STARLINK-5282,PAYLOAD,2023-01-30 09:23:52,15.08842781,0.0001154,53.2183,55.7237,92.5019,267.6105,4.6789e-05,4.57e-06,0.0,0 STARLINK-5282,1 54169U 22141N   23030.39158544  .00000457  00000-0  46789-4 0  9996,2 54169  53.2183  55.7237 0001154  92.5019 267.6105 15.08842781 14629,6917.872,95.437,540.535,538.939,0.0
54169.0,STARLINK-5282,PAYLOAD,2023-01-30 18:56:12,15.08837676,0.00012,53.2178,53.9384,91.3397,268.7733,-1.6473e-05,-5.5e-06,0.0,0 STARLINK-5282,1 54169U 22141N   23030.78903061 -.00000550  00000-0 -16473-4 0  9994,2 54169  53.2178  53.9384 0001200  91.3397 268.7733 15.08837676 14686,6917.887,95.438,540.583,538.922,0.0
54169.0,STARLINK-5282,PAYLOAD,2023-01-31 10:50:03,15.0884217,0.0001133,53.2173,50.9642,94.5809,265.5312,-4.0517e-06,-3.52e-06,0.0,0 STARLINK-5282,1 54169U 22141N   23031.45142686 -.00000352  00000-0 -40517-5 0  9994,2 54169  53.2173  50.9642 0001133  94.5809 265.5312 15.08842170 14787,6917.874,95.437,540.523,538.955,0.0
54169.0,STARLINK-5282,PAYLOAD,2023-01-31 18:46:58,15.08841898,0.000121,53.2178,49.479,81.6518,278.4611,1.4035e-05,-6.4e-07,0.0,0 STARLINK-5282,1 54169U 22141N   23031.78262635 -.00000064  00000-0  14035-4 0  9991,2 54169  53.2178  49.4790 0001210  81.6518 278.4611 15.08841898 14836,6917.875,95.437,540.577,538.903,0.0
54169.0,STARLINK-5282,PAYLOAD,2023-01-31 23:33:08,15.08831001,0.000127,53.2177,48.5867,84.8276,275.2861,0.00010237,1.341e-05,0.0,0 STARLINK-5282,1 54169U 22141N   23031.98134989  .00001341  00000-0  10237-3 0  9990,2 54169  53.2177  48.5867 0001270  84.8276 275.2861 15.08831001 14862,6917.908,95.438,540.651,538.894,0.0
54169.0,STARLINK-5282,PAYLOAD,2023-02-01 10:40:49,15.08845803,0.0001324,53.2174,46.5034,92.6969,267.4175,9.7138e-05,1.259e-05,0.0,0 STARLINK-5282,1 54169U 22141N   23032.44501998  .00001259  00000-0  97138-4 0  9994,2 54169  53.2174  46.5034 0001324  92.6969 267.4175 15.08845803 14933,6917.863,95.437,540.644,538.812,0.0
54169.0,STARLINK-5282,PAYLOAD,2023-02-02 00:59:19,15.08832402,0.0001169,53.2181,43.8265,89.681,270.4317,-3.5292e-05,-8.49e-06,0.0,0 STARLINK-5282,1 54169U 22141N   23033.04119344 -.00000849  00000-0 -35292-4 0  9990,2 54169  53.2181  43.8265 0001169  89.6810 270.4317 15.08832402 15029,6917.904,95.438,540.577,538.96,0.0
54169.0,STARLINK-5282,PAYLOAD,2023-02-02 05:45:28,15.08836527,0.0001188,53.2182,42.9355,80.891,279.2217,2.8439e-06,-2.43e-06,0.0,0 STARLINK-5282,1 54169U 22141N   23033.23991061 -.00000243  00000-0  28439-5 0  9998,2 54169  53.2182  42.9355 0001188  80.8910 279.2217 15.08836527 15056,6917.891,95.438,540.578,538.934,0.0
54169.0,STARLINK-5282,PAYLOAD,2023-02-03 00:50:05,15.08839364,0.0001178,53.2179,39.3674,97.8292,262.2834,-3.9171e-06,-3.5e-06,0.0,0 STARLINK-5282,1 54169U 22141N   23034.03478920 -.00000350  00000-0 -39171-5 0  9996,2 54169  53.2179  39.3674 0001178  97.8292 262.2834 15.08839364 15178,6917.882,95.438,540.562,538.932,0.0
54169.0,STARLINK-5282,PAYLOAD,2023-02-03 10:22:24,15.08843871,0.0001184,53.218,37.5845,99.3196,260.793,2.5769e-05,1.22e-06,0.0,0 STARLINK-5282,1 54169U 22141N   23034.43222533  .00000122  00000-0  25769-4 0  9999,2 54169  53.2180  37.5845 0001184  99.3196 260.7930 15.08843871 15232,6917.869,95.437,540.553,538.914,0.0
54169.0,STARLINK-5282,PAYLOAD,2023-02-04 03:51:39,15.08833333,0.00012,53.2201,34.3176,93.3353,266.7777,3.0148e-05,1.92e-06,0.0,0 STARLINK-5282,1 54169U 22141N   23035.16087462  .00000192  00000-0  30148-4 0  9994,2 54169  53.2201  34.3176 0001200  93.3353 266.7777 15.08833333 15345,6917.901,95.438,540.596,538.936,0.0
54169.0,STARLINK-5282,PAYLOAD,2023-02-04 07:02:25,15.08865668,0.0001046,53.2196,33.7208,86.1093,274.0018,-0.00038704,-6.447e-05,0.0,0 STARLINK-5282,1 54169U 22141N   23035.29334651 -.00006447  00000-0 -38704-3 0  9999,2 54169  53.2196  33.7208 0001046  86.1093 274.0018 15.08865668 15364,6917.802,95.436,540.391,538.943,0.0
54169.0,STARLINK-5282,PAYLOAD,2023-02-05 03:42:26,15.0883674,0.0001376,53.2201,29.8559,102.3788,257.7358,-3.4599e-06,-3.43e-06,0.0,0 STARLINK-5282,1 54169U 22141N   23036.15447682 -.00000343  00000-0 -34599-5 0  9993,2 54169  53.2201  29.8559 0001376 102.3788 257.7358 15.08836740 15492,6917.89,95.438,540.707,538.803,0.0
54169.0,STARLINK-5282,PAYLOAD,2023-02-05 10:03:58,15.08843832,0.0001152,53.218,28.664,94.0152,266.0971,5.2745e-05,5.52e-06,0.0,0 STARLINK-5282,1 54169U 22141N   23036.41943049  .00000552  00000-0  52745-4 0  9992,2 54169  53.2180  28.6640 0001152  94.0152 266.0971 15.08843832 15539,6917.869,95.437,540.531,538.937,0.0
54169.0,STARLINK-5282,PAYLOAD,2023-02-05 22:47:04,15.08840382,0.0001338,53.2178,26.2843,100.349,259.7653,-1.8405e-06,-3.17e-06,0.0,0 STARLINK-5282,1 54169U 22141N   23036.94935558 -.00000317  00000-0 -18405-5 0  9993,2 54169  53.2178  26.2843 0001338 100.3490 259.7653 15.08840382 15619,6917.879,95.438,540.67,538.819,0.0
54169.0,STARLINK-5282,PAYLOAD,2023-02-06 08:19:22,15.08844201,0.0001296,53.2185,24.4994,90.4691,269.6449,0.00011327,1.515e-05,0.0,0 STARLINK-5282,1 54169U 22141N   23037.34679010  .00001515  00000-0  11327-3 0  9999,2 54169  53.2185  24.4994 0001296  90.4691 269.6449 15.08844201 15672,6917.868,95.437,540.629,538.836,0.0
